SL-16 R/B               
1 22566U 93016B   26036.12701157  .00000002  00000+0  25744-4 0  9998
2 22566  71.0077 283.5763 0010075 359.3944   0.7165 14.15303956697568
COSMOS 2242             
1 22626U 93024A   26036.13944618  .00003202  00000+0  27951-3 0  9992
2 22626  82.5196 297.8479 0017824  57.4931 302.8010 14.96410319775526
SL-16 R/B               
1 22803U 93059B   26035.86832698  .00000291  00000+0  16771-3 0  9993
2 22803  70.9893  80.3436 0019481 261.3433  98.5483 14.17225601674881
ARIANE 40 R/B           
1 22830U 93061H   26036.15738118  .00000271  00000+0  11527-3 0  9993
2 22830  98.4985 105.6758 0011037  26.5461 333.6286 14.32843322689442
COSMOS 2278             
1 23087U 94023A   26036.13534657 -.00000218  00000+0 -89113-4 0  9997
2 23087  71.0506 243.2073 0006464  74.7496 285.4341 14.14364570640203
SL-16 R/B               
1 23088U 94023B   26035.70174623 -.00000119  00000+0 -36847-4 0  9999
2 23088  71.0000 140.1668 0004436 316.0138  44.0631 14.15003668641425
SL-16 R/B               
1 23343U 94074B   26036.11975324  .00000620  00000+0  89851-4 0  9990
2 23343  97.7150  68.2504 0005956 339.9004  54.4174 14.79368103682434
SL-16 R/B               
1 23405U 94077B   26036.04956519 -.00000078  00000+0 -15244-4 0  9993
2 23405  70.9814  61.1584 0004461 240.2213 119.8466 14.15556609611611
ARIANE 40+ R/B          
1 23561U 95021B   26036.14757699  .00000387  00000+0  13751-3 0  9996
2 23561  98.4564 108.0603 0005888 232.9541 156.9829 14.39747833614569
SL-16 R/B               
1 23705U 95058B   26035.98428744  .00000267  00000+0  16100-3 0  9991
2 23705  71.0188 248.9194 0012507 179.1726 180.9420 14.15490010563226
SL-16 R/B               
1 24298U 96051B   26036.02155156  .00000080  00000+0  70104-4 0  9991
2 24298  70.7566 244.3863 0017795 193.5334 166.5310 14.12406329517035
ORBVIEW 2 (SEASTAR)     
1 24883U 97037A   26035.93642519  .00000384  00000+0  14965-3 0  9998
2 24883  98.8510 199.3911 0002797 139.0562 221.0833 14.35468629503771
