CCSDS_OMM_VERS = 2.0
CREATION_DATE  = 
ORIGINATOR     = 

OBJECT_NAME    = SL-16 R/B
OBJECT_ID      = 1993-016B
CENTER_NAME    = EARTH
REF_FRAME      = TEME
TIME_SYSTEM    = UTC
MEAN_ELEMENT_THEORY = SGP/SGP4

EPOCH          = 2026-02-05T03:02:53.799648
MEAN_MOTION    = 14.15303956
ECCENTRICITY   = .0010075
INCLINATION    = 71.0077
RA_OF_ASC_NODE = 283.5763
ARG_OF_PERICENTER = 359.3944
MEAN_ANOMALY   = 0.7165

EPHEMERIS_TYPE = 0
CLASSIFICATION_TYPE = U
NORAD_CAT_ID   = 22566
ELEMENT_SET_NO = 999
REV_AT_EPOCH   = 69756
BSTAR          = .25744E-4
MEAN_MOTION_DOT = .2E-7
MEAN_MOTION_DDOT = 0

CCSDS_OMM_VERS = 2.0
CREATION_DATE  = 
ORIGINATOR     = 

OBJECT_NAME    = COSMOS 2242
OBJECT_ID      = 1993-024A
CENTER_NAME    = EARTH
REF_FRAME      = TEME
TIME_SYSTEM    = UTC
MEAN_ELEMENT_THEORY = SGP/SGP4

EPOCH          = 2026-02-05T03:20:48.149952
MEAN_MOTION    = 14.96410319
ECCENTRICITY   = .0017824
INCLINATION    = 82.5196
RA_OF_ASC_NODE = 297.8479
ARG_OF_PERICENTER = 57.4931
MEAN_ANOMALY   = 302.8010

EPHEMERIS_TYPE = 0
CLASSIFICATION_TYPE = U
NORAD_CAT_ID   = 22626
ELEMENT_SET_NO = 999
REV_AT_EPOCH   = 77552
BSTAR          = .27951E-3
MEAN_MOTION_DOT = .3202E-4
MEAN_MOTION_DDOT = 0

CCSDS_OMM_VERS = 2.0
CREATION_DATE  = 
ORIGINATOR     = 

OBJECT_NAME    = SL-16 R/B
OBJECT_ID      = 1993-059B
CENTER_NAME    = EARTH
REF_FRAME      = TEME
TIME_SYSTEM    = UTC
MEAN_ELEMENT_THEORY = SGP/SGP4

EPOCH          = 2026-02-04T20:50:23.451072
MEAN_MOTION    = 14.17225601
ECCENTRICITY   = .0019481
INCLINATION    = 70.9893
RA_OF_ASC_NODE = 80.3436
ARG_OF_PERICENTER = 261.3433
MEAN_ANOMALY   = 98.5483

EPHEMERIS_TYPE = 0
CLASSIFICATION_TYPE = U
NORAD_CAT_ID   = 22803
ELEMENT_SET_NO = 999
REV_AT_EPOCH   = 67488
BSTAR          = .16771E-3
MEAN_MOTION_DOT = .291E-5
MEAN_MOTION_DDOT = 0

CCSDS_OMM_VERS = 2.0
CREATION_DATE  = 
ORIGINATOR     = 

OBJECT_NAME    = ARIANE 40 R/B
OBJECT_ID      = 1993-061H
CENTER_NAME    = EARTH
REF_FRAME      = TEME
TIME_SYSTEM    = UTC
MEAN_ELEMENT_THEORY = SGP/SGP4

EPOCH          = 2026-02-05T03:46:37.733952
MEAN_MOTION    = 14.32843322
ECCENTRICITY   = .0011037
INCLINATION    = 98.4985
RA_OF_ASC_NODE = 105.6758
ARG_OF_PERICENTER = 26.5461
MEAN_ANOMALY   = 333.6286

EPHEMERIS_TYPE = 0
CLASSIFICATION_TYPE = U
NORAD_CAT_ID   = 22830
ELEMENT_SET_NO = 999
REV_AT_EPOCH   = 68944
BSTAR          = .11527E-3
MEAN_MOTION_DOT = .271E-5
MEAN_MOTION_DDOT = 0

CCSDS_OMM_VERS = 2.0
CREATION_DATE  = 
ORIGINATOR     = 

OBJECT_NAME    = COSMOS 2278
OBJECT_ID      = 1994-023A
CENTER_NAME    = EARTH
REF_FRAME      = TEME
TIME_SYSTEM    = UTC
MEAN_ELEMENT_THEORY = SGP/SGP4

EPOCH          = 2026-02-05T03:14:53.943648
MEAN_MOTION    = 14.14364570
ECCENTRICITY   = .0006464
INCLINATION    = 71.0506
RA_OF_ASC_NODE = 243.2073
ARG_OF_PERICENTER = 74.7496
MEAN_ANOMALY   = 285.4341

EPHEMERIS_TYPE = 0
CLASSIFICATION_TYPE = U
NORAD_CAT_ID   = 23087
ELEMENT_SET_NO = 999
REV_AT_EPOCH   = 64020
BSTAR          = -.89113E-4
MEAN_MOTION_DOT = -.218E-5
MEAN_MOTION_DDOT = 0

CCSDS_OMM_VERS = 2.0
CREATION_DATE  = 
ORIGINATOR     = 

OBJECT_NAME    = SL-16 R/B
OBJECT_ID      = 1994-023B
CENTER_NAME    = EARTH
REF_FRAME      = TEME
TIME_SYSTEM    = UTC
MEAN_ELEMENT_THEORY = SGP/SGP4

EPOCH          = 2026-02-04T16:50:30.874272
MEAN_MOTION    = 14.15003668
ECCENTRICITY   = .0004436
INCLINATION    = 71.0000
RA_OF_ASC_NODE = 140.1668
ARG_OF_PERICENTER = 316.0138
MEAN_ANOMALY   = 44.0631

EPHEMERIS_TYPE = 0
CLASSIFICATION_TYPE = U
NORAD_CAT_ID   = 23088
ELEMENT_SET_NO = 999
REV_AT_EPOCH   = 64142
BSTAR          = -.36847E-4
MEAN_MOTION_DOT = -.119E-5
MEAN_MOTION_DDOT = 0

CCSDS_OMM_VERS = 2.0
CREATION_DATE  = 
ORIGINATOR     = 

OBJECT_NAME    = SL-16 R/B
OBJECT_ID      = 1994-074B
CENTER_NAME    = EARTH
REF_FRAME      = TEME
TIME_SYSTEM    = UTC
MEAN_ELEMENT_THEORY = SGP/SGP4

EPOCH          = 2026-02-05T02:52:26.679936
MEAN_MOTION    = 14.79368103
ECCENTRICITY   = .0005956
INCLINATION    = 97.7150
RA_OF_ASC_NODE = 68.2504
ARG_OF_PERICENTER = 339.9004
MEAN_ANOMALY   = 54.4174

EPHEMERIS_TYPE = 0
CLASSIFICATION_TYPE = U
NORAD_CAT_ID   = 23343
ELEMENT_SET_NO = 999
REV_AT_EPOCH   = 68243
BSTAR          = .89851E-4
MEAN_MOTION_DOT = .62E-5
MEAN_MOTION_DDOT = 0

CCSDS_OMM_VERS = 2.0
CREATION_DATE  = 
ORIGINATOR     = 

OBJECT_NAME    = SL-16 R/B
OBJECT_ID      = 1994-077B
CENTER_NAME    = EARTH
REF_FRAME      = TEME
TIME_SYSTEM    = UTC
MEAN_ELEMENT_THEORY = SGP/SGP4

EPOCH          = 2026-02-05T01:11:22.432416
MEAN_MOTION    = 14.15556609
ECCENTRICITY   = .0004461
INCLINATION    = 70.9814
RA_OF_ASC_NODE = 61.1584
ARG_OF_PERICENTER = 240.2213
MEAN_ANOMALY   = 119.8466

EPHEMERIS_TYPE = 0
CLASSIFICATION_TYPE = U
NORAD_CAT_ID   = 23405
ELEMENT_SET_NO = 999
REV_AT_EPOCH   = 61161
BSTAR          = -.15244E-4
MEAN_MOTION_DOT = -.78E-6
MEAN_MOTION_DDOT = 0

CCSDS_OMM_VERS = 2.0
CREATION_DATE  = 
ORIGINATOR     = 

OBJECT_NAME    = ARIANE 40+ R/B
OBJECT_ID      = 1995-021B
CENTER_NAME    = EARTH
REF_FRAME      = TEME
TIME_SYSTEM    = UTC
MEAN_ELEMENT_THEORY = SGP/SGP4

EPOCH          = 2026-02-05T03:32:30.651936
MEAN_MOTION    = 14.39747833
ECCENTRICITY   = .0005888
INCLINATION    = 98.4564
RA_OF_ASC_NODE = 108.0603
ARG_OF_PERICENTER = 232.9541
MEAN_ANOMALY   = 156.9829

EPHEMERIS_TYPE = 0
CLASSIFICATION_TYPE = U
NORAD_CAT_ID   = 23561
ELEMENT_SET_NO = 999
REV_AT_EPOCH   = 61456
BSTAR          = .13751E-3
MEAN_MOTION_DOT = .387E-5
MEAN_MOTION_DDOT = 0

CCSDS_OMM_VERS = 2.0
CREATION_DATE  = 
ORIGINATOR     = 

OBJECT_NAME    = SL-16 R/B
OBJECT_ID      = 1995-058B
CENTER_NAME    = EARTH
REF_FRAME      = TEME
TIME_SYSTEM    = UTC
MEAN_ELEMENT_THEORY = SGP/SGP4

EPOCH          = 2026-02-04T23:37:22.434816
MEAN_MOTION    = 14.15490010
ECCENTRICITY   = .0012507
INCLINATION    = 71.0188
RA_OF_ASC_NODE = 248.9194
ARG_OF_PERICENTER = 179.1726
MEAN_ANOMALY   = 180.9420

EPHEMERIS_TYPE = 0
CLASSIFICATION_TYPE = U
NORAD_CAT_ID   = 23705
ELEMENT_SET_NO = 999
REV_AT_EPOCH   = 56322
BSTAR          = .161E-3
MEAN_MOTION_DOT = .267E-5
MEAN_MOTION_DDOT = 0

CCSDS_OMM_VERS = 2.0
CREATION_DATE  = 
ORIGINATOR     = 

OBJECT_NAME    = SL-16 R/B
OBJECT_ID      = 1996-051B
CENTER_NAME    = EARTH
REF_FRAME      = TEME
TIME_SYSTEM    = UTC
MEAN_ELEMENT_THEORY = SGP/SGP4

EPOCH          = 2026-02-05T00:31:02.054784
MEAN_MOTION    = 14.12406329
ECCENTRICITY   = .0017795
INCLINATION    = 70.7566
RA_OF_ASC_NODE = 244.3863
ARG_OF_PERICENTER = 193.5334
MEAN_ANOMALY   = 166.5310

EPHEMERIS_TYPE = 0
CLASSIFICATION_TYPE = U
NORAD_CAT_ID   = 24298
ELEMENT_SET_NO = 999
REV_AT_EPOCH   = 51703
BSTAR          = .70104E-4
MEAN_MOTION_DOT = .8E-6
MEAN_MOTION_DDOT = 0

CCSDS_OMM_VERS = 2.0
CREATION_DATE  = 
ORIGINATOR     = 

OBJECT_NAME    = ORBVIEW 2 (SEASTAR)
OBJECT_ID      = 1997-037A
CENTER_NAME    = EARTH
REF_FRAME      = TEME
TIME_SYSTEM    = UTC
MEAN_ELEMENT_THEORY = SGP/SGP4

EPOCH          = 2026-02-04T22:28:27.136416
MEAN_MOTION    = 14.35468629
ECCENTRICITY   = .0002797
INCLINATION    = 98.8510
RA_OF_ASC_NODE = 199.3911
ARG_OF_PERICENTER = 139.0562
MEAN_ANOMALY   = 221.0833

EPHEMERIS_TYPE = 0
CLASSIFICATION_TYPE = U
NORAD_CAT_ID   = 24883
ELEMENT_SET_NO = 999
REV_AT_EPOCH   = 50377
BSTAR          = .14965E-3
MEAN_MOTION_DOT = .384E-5
MEAN_MOTION_DDOT = 0

